{"type": "FeatureCollection", "features": [ {"type": "Feature", "properties": {"norad_id": 33690, "name": "FENGYUN 1C DEB", "group": "fengyun-1c-debris", "lat": -73.32862555911507, "lon": -124.5753490128012, "alt_km": 747.2095055390218, "timestamp": "2025-12-13T10:41:26.053213+00:00", "meta": {"OBJECT_NAME": "FENGYUN 1C DEB", "OBJECT_ID": "1999-025DGB", "EPOCH": "2025-12-12T05:23:26.598624", "MEAN_MOTION": 14.51441584, "ECCENTRICITY": 0.00304597, "INCLINATION": 98.6124, "RA_OF_ASC_NODE": 84.5776, "ARG_OF_PERICENTER": 51.4058, "MEAN_ANOMALY": 308.9857, "EPHEMERIS_TYPE": 0, "CLASSIFICATION_TYPE": "U", "NORAD_CAT_ID": 33690, "ELEMENT_SET_NO": 999, "REV_AT_EPOCH": 93212, "BSTAR": 0.0033928677, "MEAN_MOTION_DOT": 0.00013604, "MEAN_MOTION_DDOT": 0}, "tle": {"line1": "1 33690U 99025DGB 25346.22461341  .00013604  00000+0  33929-2 0  9990", "line2": "2 33690  98.6124  84.5776 0030459  51.4058 308.9857 14.51441584932128"}}, "geometry": {"type": "Point", "coordinates": [-124.5753490128012, -73.32862555911507]}}, {"type": "Feature", "properties": {"norad_id": 33693, "name": "FENGYUN 1C DEB", "group": "fengyun-1c-debris", "lat": -80.2806073339937, "lon": -123.48937037667872, "alt_km": 980.6996243613739, "timestamp": "2025-12-13T10:41:26.053223+00:00", "meta": {"OBJECT_NAME": "FENGYUN 1C DEB", "OBJECT_ID": "1999-025DGE", "EPOCH": "2025-12-12T22:50:36.263904", "MEAN_MOTION": 13.71313268, "ECCENTRICITY": 0.02261745, "INCLINATION": 99.2136, "RA_OF_ASC_NODE": 164.6662, "ARG_OF_PERICENTER": 358.2829, "MEAN_ANOMALY": 1.7519, "EPHEMERIS_TYPE": 0, "CLASSIFICATION_TYPE": "U", "NORAD_CAT_ID": 33693, "ELEMENT_SET_NO": 999, "REV_AT_EPOCH": 88234, "BSTAR": 0.0021686517, "MEAN_MOTION_DOT": 2.292e-05, "MEAN_MOTION_DDOT": 0}, "tle": {"line1": "1 33693U 99025DGE 25346.95180861  .00002292  00000+0  21687-2 0  9997", "line2": "2 33693  99.2136 164.6662 0226174 358.2829   1.7519 13.71313268882349"}}, "geometry": {"type": "Point", "coordinates": [-123.48937037667872, -80.2806073339937]}}, {"type": "Feature", "properties": {"norad_id": 33698, "name": "FENGYUN 1C DEB", "group": "fengyun-1c-debris", "lat": 42.580210040551606, "lon": 136.59648032266648, "alt_km": 683.9357512776205, "timestamp": "2025-12-13T10:41:26.053234+00:00", "meta": {"OBJECT_NAME": "FENGYUN 1C DEB", "OBJECT_ID": "1999-025DGK", "EPOCH": "2025-12-11T15:09:49.005216", "MEAN_MOTION": 14.55711435, "ECCENTRICITY": 0.01373722, "INCLINATION": 99.6214, "RA_OF_ASC_NODE": 305.5407, "ARG_OF_PERICENTER": 221.1507, "MEAN_ANOMALY": 137.9264, "EPHEMERIS_TYPE": 0, "CLASSIFICATION_TYPE": "U", "NORAD_CAT_ID": 33698, "ELEMENT_SET_NO": 999, "REV_AT_EPOCH": 95620, "BSTAR": 0.00044856589, "MEAN_MOTION_DOT": 2.159e-05, "MEAN_MOTION_DDOT": 0}, "tle": {"line1": "1 33698U 99025DGK 25345.63181719  .00002159  00000+0  44857-3 0  9996", "line2": "2 33698  99.6214 305.5407 0137372 221.1507 137.9264 14.55711435956207"}}, "geometry": {"type": "Point", "coordinates": [136.59648032266648, 42.580210040551606]}}, {"type": "Feature", "properties": {"norad_id": 33701, "name": "FENGYUN 1C DEB", "group": "fengyun-1c-debris", "lat": 71.00952995635814, "lon": -84.47587186798074, "alt_km": 916.645856442733, "timestamp": "2025-12-13T10:41:26.053244+00:00", "meta": {"OBJECT_NAME": "FENGYUN 1C DEB", "OBJECT_ID": "1999-025DGN", "EPOCH": "2025-11-19T19:29:54.481632", "MEAN_MOTION": 14.02181122, "ECCENTRICITY": 0.01331995, "INCLINATION": 98.6598, "RA_OF_ASC_NODE": 279.346, "ARG_OF_PERICENTER": 252.9525, "MEAN_ANOMALY": 105.7013, "EPHEMERIS_TYPE": 0, "CLASSIFICATION_TYPE": "U", "NORAD_CAT_ID": 33701, "ELEMENT_SET_NO": 999, "REV_AT_EPOCH": 90184, "BSTAR": 0.0018411078, "MEAN_MOTION_DOT": 3.003e-05, "MEAN_MOTION_DDOT": 0}, "tle": {"line1": "1 33701U 99025DGN 25323.81243613  .00003003  00000+0  18411-2 0  9994", "line2": "2 33701  98.6598 279.3460 0133199 252.9525 105.7013 14.02181122901849"}}, "geometry": {"type": "Point", "coordinates": [-84.47587186798074, 71.00952995635814]}}, {"type": "Feature", "properties": {"norad_id": 33710, "name": "FENGYUN 1C DEB", "group": "fengyun-1c-debris", "lat": 42.212237466348846, "lon": -85.46383231536728, "alt_km": 810.0781573042559, "timestamp": "2025-12-13T10:41:26.053255+00:00", "meta": {"OBJECT_NAME": "FENGYUN 1C DEB", "OBJECT_ID": "1999-025DGX", "EPOCH": "2025-12-11T05:18:37.844640", "MEAN_MOTION": 14.11630786, "ECCENTRICITY": 0.00561161, "INCLINATION": 98.9793, "RA_OF_ASC_NODE": 84.0646, "ARG_OF_PERICENTER": 151.6019, "MEAN_ANOMALY": 208.823, "EPHEMERIS_TYPE": 0, "CLASSIFICATION_TYPE": "U", "NORAD_CAT_ID": 33710, "ELEMENT_SET_NO": 999, "REV_AT_EPOCH": 67635, "BSTAR": 0.0016514968, "MEAN_MOTION_DOT": 3.003e-05, "MEAN_MOTION_DDOT": 0}, "tle": {"line1": "1 33710U 99025DGX 25345.22127135  .00003003  00000+0  16515-2 0  9996", "line2": "2 33710  98.9793  84.0646 0056116 151.6019 208.8230 14.11630786676358"}}, "geometry": {"type": "Point", "coordinates": [-85.46383231536728, 42.212237466348846]}}, {"type": "Feature", "properties": {"norad_id": 33711, "name": "FENGYUN 1C DEB", "group": "fengyun-1c-debris", "lat": -73.89216269699024, "lon": -173.14567132641818, "alt_km": 958.2899134668241, "timestamp": "2025-12-13T10:41:26.053266+00:00", "meta": {"OBJECT_NAME": "FENGYUN 1C DEB", "OBJECT_ID": "1999-025DGY", "EPOCH": "2025-12-12T15:19:48.690336", "MEAN_MOTION": 14.00919591, "ECCENTRICITY": 0.00965994, "INCLINATION": 99.1836, "RA_OF_ASC_NODE": 40.1121, "ARG_OF_PERICENTER": 48.5264, "MEAN_ANOMALY": 102.5872, "EPHEMERIS_TYPE": 0, "CLASSIFICATION_TYPE": "U", "NORAD_CAT_ID": 33711, "ELEMENT_SET_NO": 999, "REV_AT_EPOCH": 91930, "BSTAR": 0.0008529516, "MEAN_MOTION_DOT": 1.284e-05, "MEAN_MOTION_DDOT": 0}, "tle": {"line1": "1 33711U 99025DGY 25346.63875799  .00001284  00000+0  85295-3 0  9990", "line2": "2 33711  99.1836  40.1121 0096599  48.5264 102.5872 14.00919591919305"}}, "geometry": {"type": "Point", "coordinates": [-173.14567132641818, -73.89216269699024]}}, {"type": "Feature", "properties": {"norad_id": 33716, "name": "FENGYUN 1C DEB", "group": "fengyun-1c-debris", "lat": -78.90388478362244, "lon": -34.151918888606886, "alt_km": 776.9192441901114, "timestamp": "2025-12-13T10:41:26.053276+00:00", "meta": {"OBJECT_NAME": "FENGYUN 1C DEB", "OBJECT_ID": "1999-025DHD", "EPOCH": "2025-12-11T13:49:05.653632", "MEAN_MOTION": 14.326674, "ECCENTRICITY": 0.00936908, "INCLINATION": 98.8737, "RA_OF_ASC_NODE": 271.1298, "ARG_OF_PERICENTER": 1.3364, "MEAN_ANOMALY": 358.8052, "EPHEMERIS_TYPE": 0, "CLASSIFICATION_TYPE": "U", "NORAD_CAT_ID": 33716, "ELEMENT_SET_NO": 999, "REV_AT_EPOCH": 65141, "BSTAR": 0.00030982602, "MEAN_MOTION_DOT": 8.37e-06, "MEAN_MOTION_DDOT": 0}, "tle": {"line1": "1 33716U 99025DHD 25345.57575988  .00000837  00000+0  30983-3 0  9991", "line2": "2 33716  98.8737 271.1298 0093690   1.3364 358.8052 14.32667400651419"}}, "geometry": {"type": "Point", "coordinates": [-34.151918888606886, -78.90388478362244]}}, {"type": "Feature", "properties": {"norad_id": 33718, "name": "FENGYUN 1C DEB", "group": "fengyun-1c-debris", "lat": -50.70768326836369, "lon": 86.11014835307662, "alt_km": 802.8616949396655, "timestamp": "2025-12-13T10:41:26.053287+00:00", "meta": {"OBJECT_NAME": "FENGYUN 1C DEB", "OBJECT_ID": "1999-025DHF", "EPOCH": "2025-12-11T12:53:11.119200", "MEAN_MOTION": 14.08062105, "ECCENTRICITY": 0.00978602, "INCLINATION": 99.6588, "RA_OF_ASC_NODE": 72.057, "ARG_OF_PERICENTER": 323.1333, "MEAN_ANOMALY": 36.3133, "EPHEMERIS_TYPE": 0, "CLASSIFICATION_TYPE": "U", "NORAD_CAT_ID": 33718, "ELEMENT_SET_NO": 999, "REV_AT_EPOCH": 69169, "BSTAR": 0.0025519977, "MEAN_MOTION_DOT": 4.491e-05, "MEAN_MOTION_DDOT": 0}, "tle": {"line1": "1 33718U 99025DHF 25345.53693425  .00004491  00000+0  25520-2 0  9996", "line2": "2 33718  99.6588  72.0570 0097860 323.1333  36.3133 14.08062105691695"}}, "geometry": {"type": "Point", "coordinates": [86.11014835307662, -50.70768326836369]}}, {"type": "Feature", "properties": {"norad_id": 33719, "name": "FENGYUN 1C DEB", "group": "fengyun-1c-debris", "lat": -39.54649044536634, "lon": -139.913407274872, "alt_km": 837.2872886422465, "timestamp": "2025-12-13T10:41:26.053297+00:00", "meta": {"OBJECT_NAME": "FENGYUN 1C DEB", "OBJECT_ID": "1999-025DHG", "EPOCH": "2025-12-12T22:40:06.165984", "MEAN_MOTION": 14.2347972, "ECCENTRICITY": 0.00304862, "INCLINATION": 98.7734, "RA_OF_ASC_NODE": 46.9132, "ARG_OF_PERICENTER": 79.4951, "MEAN_ANOMALY": 94.7467, "EPHEMERIS_TYPE": 0, "CLASSIFICATION_TYPE": "U", "NORAD_CAT_ID": 33719, "ELEMENT_SET_NO": 999, "REV_AT_EPOCH": 92016, "BSTAR": 0.0014348527, "MEAN_MOTION_DOT": 3.234e-05, "MEAN_MOTION_DDOT": 0}, "tle": {"line1": "1 33719U 99025DHG 25346.94451581  .00003234  00000+0  14349-2 0  9999", "line2": "2 33719  98.7734  46.9132 0030486  79.4951  94.7467 14.23479720920168"}}, "geometry": {"type": "Point", "coordinates": [-139.913407274872, -39.54649044536634]}}, {"type": "Feature", "properties": {"norad_id": 33722, "name": "FENGYUN 1C DEB", "group": "fengyun-1c-debris", "lat": 66.54978245566173, "lon": -157.86458267973828, "alt_km": 897.7290477526858, "timestamp": "2025-12-13T10:41:26.053307+00:00", "meta": {"OBJECT_NAME": "FENGYUN 1C DEB", "OBJECT_ID": "1999-025DHK", "EPOCH": "2025-12-12T20:38:11.160096", "MEAN_MOTION": 14.21359221, "ECCENTRICITY": 0.0158185, "INCLINATION": 98.5749, "RA_OF_ASC_NODE": 1.2115, "ARG_OF_PERICENTER": 251.3223, "MEAN_ANOMALY": 107.0727, "EPHEMERIS_TYPE": 0, "CLASSIFICATION_TYPE": "U", "NORAD_CAT_ID": 33722, "ELEMENT_SET_NO": 999, "REV_AT_EPOCH": 92149, "BSTAR": 0.0010558647, "MEAN_MOTION_DOT": 2.572e-05, "MEAN_MOTION_DDOT": 0}, "tle": {"line1": "1 33722U 99025DHK 25346.85985139  .00002572  00000+0  10559-2 0  9997", "line2": "2 33722  98.5749   1.2115 0158185 251.3223 107.0727 14.21359221921496"}}, "geometry": {"type": "Point", "coordinates": [-157.86458267973828, 66.54978245566173]}}]}